{
    "week": 295,
    "satellites": [
        {
            "Name": "BEIDOU-3 M8 (C28)",
            "Line1": "1 43108U 18003B   24340.86437380 -.00000048  00000+0  00000+0 0  9991",
            "Line2": "2 43108  54.8011 321.6897 0005124 269.1161  90.8276  1.86230794 46968",
            "SatelliteNumber": "43108",
            "Classification": "U",
            "LaunchYear": "18",
            "LaunchNumber": "003",
            "PieceOfLaunch": "B",
            "EpochYear": "24",
            "EpochDay": 340.8643738,
            "FirstDerivativeMeanMotion": -4.8e-07,
            "SecondDerivativeMeanMotion": "00000+0",
            "BSTAR": "00000+0",
            "SetNumber": "999",
            "Inclination": 54.8011,
            "RAAN": 321.6897,
            "Eccentricity": 0.0005124,
            "ArgumentOfPerigee": 269.1161,
            "MeanAnomaly": 90.8276,
            "MeanMotion": 1.86230794,
            "RevolutionNumber": "4696"
        },
        {
            "Name": "BEIDOU-3 M4 (C22)",
            "Line1": "1 43207U 18018A   24341.30551929  .00000001  00000+0  00000+0 0  9991",
            "Line2": "2 43207  56.1640  81.6206 0003632   5.7873 354.2240  1.86230971 46352",
            "SatelliteNumber": "43207",
            "Classification": "U",
            "LaunchYear": "18",
            "LaunchNumber": "018",
            "PieceOfLaunch": "A",
            "EpochYear": "24",
            "EpochDay": 341.30551929,
            "FirstDerivativeMeanMotion": 1e-08,
            "SecondDerivativeMeanMotion": "00000+0",
            "BSTAR": "00000+0",
            "SetNumber": "999",
            "Inclination": 56.164,
            "RAAN": 81.6206,
            "Eccentricity": 0.0003632,
            "ArgumentOfPerigee": 5.7873,
            "MeanAnomaly": 354.224,
            "MeanMotion": 1.86230971,
            "RevolutionNumber": "4635"
        },
        {
            "Name": "BEIDOU-3 M3 (C21)",
            "Line1": "1 43208U 18018B   24341.37211974  .00000001  00000+0  00000+0 0  9992",
            "Line2": "2 43208  56.1636  81.6226 0006135 308.7534  51.1992  1.86231114 46358",
            "SatelliteNumber": "43208",
            "Classification": "U",
            "LaunchYear": "18",
            "LaunchNumber": "018",
            "PieceOfLaunch": "B",
            "EpochYear": "24",
            "EpochDay": 341.37211974,
            "FirstDerivativeMeanMotion": 1e-08,
            "SecondDerivativeMeanMotion": "00000+0",
            "BSTAR": "00000+0",
            "SetNumber": "999",
            "Inclination": 56.1636,
            "RAAN": 81.6226,
            "Eccentricity": 0.0006135,
            "ArgumentOfPerigee": 308.7534,
            "MeanAnomaly": 51.1992,
            "MeanMotion": 1.86231114,
            "RevolutionNumber": "4635"
        },
        {
            "Name": "BEIDOU-3 M9 (C29)",
            "Line1": "1 43245U 18029A   24341.59179995 -.00000047  00000+0  00000+0 0  9996",
            "Line2": "2 43245  54.6859 319.3715 0002230 274.9088  85.0677  1.86232412 45518",
            "SatelliteNumber": "43245",
            "Classification": "U",
            "LaunchYear": "18",
            "LaunchNumber": "029",
            "PieceOfLaunch": "A",
            "EpochYear": "24",
            "EpochDay": 341.59179995,
            "FirstDerivativeMeanMotion": -4.7e-07,
            "SecondDerivativeMeanMotion": "00000+0",
            "BSTAR": "00000+0",
            "SetNumber": "999",
            "Inclination": 54.6859,
            "RAAN": 319.3715,
            "Eccentricity": 0.000223,
            "ArgumentOfPerigee": 274.9088,
            "MeanAnomaly": 85.0677,
            "MeanMotion": 1.86232412,
            "RevolutionNumber": "4551"
        },
        {
            "Name": "BEIDOU-3 M10 (C30)",
            "Line1": "1 43246U 18029B   24339.37344251 -.00000049  00000+0  00000+0 0  9991",
            "Line2": "2 43246  54.6847 319.4752 0004003 346.7245  13.2636  1.86232765 45453",
            "SatelliteNumber": "43246",
            "Classification": "U",
            "LaunchYear": "18",
            "LaunchNumber": "029",
            "PieceOfLaunch": "B",
            "EpochYear": "24",
            "EpochDay": 339.37344251,
            "FirstDerivativeMeanMotion": -4.9e-07,
            "SecondDerivativeMeanMotion": "00000+0",
            "BSTAR": "00000+0",
            "SetNumber": "999",
            "Inclination": 54.6847,
            "RAAN": 319.4752,
            "Eccentricity": 0.0004003,
            "ArgumentOfPerigee": 346.7245,
            "MeanAnomaly": 13.2636,
            "MeanMotion": 1.86232765,
            "RevolutionNumber": "4545"
        },
        {
            "Name": "BEIDOU-2 IGSO-7 (C16)",
            "Line1": "1 43539U 18057A   24341.31993902 -.00000054  00000+0  00000+0 0  9993",
            "Line2": "2 43539  55.1533 167.8867 0078333 231.9356 263.0835  1.00258934 23547",
            "SatelliteNumber": "43539",
            "Classification": "U",
            "LaunchYear": "18",
            "LaunchNumber": "057",
            "PieceOfLaunch": "A",
            "EpochYear": "24",
            "EpochDay": 341.31993902,
            "FirstDerivativeMeanMotion": -5.4e-07,
            "SecondDerivativeMeanMotion": "00000+0",
            "BSTAR": "00000+0",
            "SetNumber": "999",
            "Inclination": 55.1533,
            "RAAN": 167.8867,
            "Eccentricity": 0.0078333,
            "ArgumentOfPerigee": 231.9356,
            "MeanAnomaly": 263.0835,
            "MeanMotion": 1.00258934,
            "RevolutionNumber": "2354"
        },
        {
            "Name": "BEIDOU-3 M5 (C23)",
            "Line1": "1 43581U 18062A   24341.21007535  .00000076  00000+0  00000+0 0  9996",
            "Line2": "2 43581  54.1132 201.2794 0002041 342.0455  18.0346  1.86228628 43242",
            "SatelliteNumber": "43581",
            "Classification": "U",
            "LaunchYear": "18",
            "LaunchNumber": "062",
            "PieceOfLaunch": "A",
            "EpochYear": "24",
            "EpochDay": 341.21007535,
            "FirstDerivativeMeanMotion": 7.6e-07,
            "SecondDerivativeMeanMotion": "00000+0",
            "BSTAR": "00000+0",
            "SetNumber": "999",
            "Inclination": 54.1132,
            "RAAN": 201.2794,
            "Eccentricity": 0.0002041,
            "ArgumentOfPerigee": 342.0455,
            "MeanAnomaly": 18.0346,
            "MeanMotion": 1.86228628,
            "RevolutionNumber": "4324"
        },
        {
            "Name": "BEIDOU-3 M6 (C24)",
            "Line1": "1 43582U 18062B   24341.07500146  .00000076  00000+0  00000+0 0  9997",
            "Line2": "2 43582  54.1129 201.2733 0007286  40.3541 319.7879  1.86229674 43246",
            "SatelliteNumber": "43582",
            "Classification": "U",
            "LaunchYear": "18",
            "LaunchNumber": "062",
            "PieceOfLaunch": "B",
            "EpochYear": "24",
            "EpochDay": 341.07500146,
            "FirstDerivativeMeanMotion": 7.6e-07,
            "SecondDerivativeMeanMotion": "00000+0",
            "BSTAR": "00000+0",
            "SetNumber": "999",
            "Inclination": 54.1129,
            "RAAN": 201.2733,
            "Eccentricity": 0.0007286,
            "ArgumentOfPerigee": 40.3541,
            "MeanAnomaly": 319.7879,
            "MeanMotion": 1.86229674,
            "RevolutionNumber": "4324"
        },
        {
            "Name": "BEIDOU-3 M12 (C26)",
            "Line1": "1 43602U 18067A   24341.00897468  .00000078  00000+0  00000+0 0  9996",
            "Line2": "2 43602  54.2047 199.9725 0008611  34.7313 325.4122  1.86227675 42726",
            "SatelliteNumber": "43602",
            "Classification": "U",
            "LaunchYear": "18",
            "LaunchNumber": "067",
            "PieceOfLaunch": "A",
            "EpochYear": "24",
            "EpochDay": 341.00897468,
            "FirstDerivativeMeanMotion": 7.8e-07,
            "SecondDerivativeMeanMotion": "00000+0",
            "BSTAR": "00000+0",
            "SetNumber": "999",
            "Inclination": 54.2047,
            "RAAN": 199.9725,
            "Eccentricity": 0.0008611,
            "ArgumentOfPerigee": 34.7313,
            "MeanAnomaly": 325.4122,
            "MeanMotion": 1.86227675,
            "RevolutionNumber": "4272"
        },
        {
            "Name": "BEIDOU-3 M11 (C25)",
            "Line1": "1 43603U 18067B   24341.14248386  .00000078  00000+0  00000+0 0  9991",
            "Line2": "2 43603  54.2020 199.9327 0005218  30.6498 329.4672  1.86227185 42758",
            "SatelliteNumber": "43603",
            "Classification": "U",
            "LaunchYear": "18",
            "LaunchNumber": "067",
            "PieceOfLaunch": "B",
            "EpochYear": "24",
            "EpochDay": 341.14248386,
            "FirstDerivativeMeanMotion": 7.8e-07,
            "SecondDerivativeMeanMotion": "00000+0",
            "BSTAR": "00000+0",
            "SetNumber": "999",
            "Inclination": 54.202,
            "RAAN": 199.9327,
            "Eccentricity": 0.0005218,
            "ArgumentOfPerigee": 30.6498,
            "MeanAnomaly": 329.4672,
            "MeanMotion": 1.86227185,
            "RevolutionNumber": "4275"
        }
    ]
}